IRIDIUM 155             
1 43573U 18061E   21130.03581637  .00000073  00000-0  19139-4 0  9995
2 43573  86.3930 115.7885 0002087  76.0127 284.1301 14.34217461146179
IRIDIUM 154             
1 43574U 18061F   21129.87725508  .00000077  00000-0  20371-4 0  9997
2 43574  86.3933 115.8995 0002524  90.6866 269.4619 14.34217094146196
IRIDIUM 163             
1 43575U 18061G   21129.71868550  .00000072  00000-0  18689-4 0  9990
2 43575  86.3930 115.9379 0002049 101.5578 258.5848 14.34216982146148
IRIDIUM 156             
1 43576U 18061H   21129.69332160  .00000075  00000-0  19786-4 0  9993
2 43576  86.3930 115.9536 0001920  88.8347 271.3069 14.34218374146136
IRIDIUM 164             
1 43577U 18061J   21129.88359531  .00000078  00000-0  20959-4 0  9993
2 43577  86.3932 115.8860 0002400  92.9831 267.1639 14.34218416146207
IRIDIUM 159             
1 43578U 18061K   21129.71234322  .00000074  00000-0  19522-4 0  9996
2 43578  86.3930 115.9335 0002424  90.6419 269.5055 14.34219047146149
IRIDIUM 180             
1 43922U 19002A   21130.06068460  .00000071  00000-0  18389-4 0  9990
2 43922  86.4003  52.6133 0002911 101.3603 258.7920 14.34215735121844
IRIDIUM 176             
1 43923U 19002B   21129.87273983  .00000146  00000-0  19309-4 0  9992
2 43923  86.6138  52.7237 0002553  86.7972 273.3537 14.72248808124950
IRIDIUM 168             
1 43924U 19002C   21129.77527615  .00000070  00000-0  17840-4 0  9990
2 43924  86.4005  52.7570 0002455  87.9735 272.1742 14.34216860121743
IRIDIUM 173             
1 43925U 19002D   21130.18119341  .00000075  00000-0  19859-4 0  9998
2 43925  86.4003  52.5523 0002363  88.4825 271.6642 14.34219072121798
IRIDIUM 169             
1 43926U 19002E   21129.87937350  .00000089  00000-0  22471-4 0  9990
2 43926  86.4216  84.2822 0005605  23.2790 336.8661 14.38603821122192
IRIDIUM 172             
1 43927U 19002F   21130.17485814  .00000074  00000-0  19371-4 0  9998
2 43927  86.4002  52.5570 0002428  89.9563 270.1911 14.34217263121791
IRIDIUM 175             
1 43928U 19002G   21129.86660180  .00000149  00000-0  19679-4 0  9998
2 43928  86.6122  52.5537 0002050  99.5199 260.6250 14.72253940124947
IRIDIUM 171             
1 43929U 19002H   21129.87674848  .00000076  00000-0  19951-4 0  9998
2 43929  86.4011  52.7807 0002486  87.5215 272.6266 14.34215928121741
IRIDIUM 170             
1 43930U 19002J   21129.81092734  .00000154  00000-0  20544-4 0  9999
2 43930  86.6137  52.7558 0002544  92.2613 267.8895 14.72248279124954
IRIDIUM 167             
1 43931U 19002K   21130.14949290  .00000075  00000-0  19725-4 0  9997
2 43931  86.4003  52.5736 0002780  96.9312 263.2200 14.34215210121785
